IRIDIUM 150             
1 43257U 18030J   24011.34374644  .00000408  00000+0  13875-3 0  9994
2 43257  86.3977 301.5190 0001902  73.4992 286.6412 14.34221039302922
IRIDIUM 143             
1 43258U 18030K   24011.32471180  .00000507  00000+0  17399-3 0  9991
2 43258  86.3982 301.5846 0001784  80.7963 279.3435 14.34219917302863
IRIDIUM 161             
1 43478U 18047C   24011.31836116  .00000615  00000+0  17685-3 0  9994
2 43478  86.4489  99.5704 0002183  94.0430 266.1021 14.43296760297070
IRIDIUM 152             
1 43479U 18047D   24011.29743107  .00000469  00000+0  16053-3 0  9994
2 43479  86.3962  99.4384 0001917  99.4251 260.7161 14.34220241295235
IRIDIUM 147             
1 43480U 18047E   24011.30377277  .00000478  00000+0  16351-3 0  9990
2 43480  86.3964  99.4252 0002296  93.8489 266.2970 14.34219625295227
IRIDIUM 110             
1 43481U 18047F   24010.33335964  .00001142  00000+0  40054-3 0  9996
2 43481  86.3968  99.8997 0002480  89.5044 270.6436 14.34216941295073
IRIDIUM 162             
1 43482U 18047G   24011.17345231  .00000630  00000+0  18110-3 0  9997
2 43482  86.4488  99.5330 0002176  92.9274 267.2176 14.43295046297040
IRIDIUM 160             
1 43569U 18061A   24010.69780633 -.00000272  00000+0 -10407-3 0  9999
2 43569  86.3947  68.0977 0002337 108.3852 251.7598 14.34217981286020
